{
  "type": "FeatureCollection",
  "features": [
    {
      "type": "Feature",
      "properties": {
        "norad_id": 48859,
        "name": "GPS BIII-5  (PRN 11)",
        "group": "gps-ops",
        "lat": -38.25573051504141,
        "lon": -166.70243338337085,
        "alt_km": 20122.35496547441,
        "timestamp": "2025-12-08T08:59:01.024609+00:00",
        "meta_object_name": "GPS BIII-5  (PRN 11)",
        "meta_object_id": "2021-054A",
        "meta_epoch": "2025-11-30T17:12:22.002912",
        "meta_mean_motion": 2.00553932,
        "meta_eccentricity": 0.0024653,
        "meta_inclination": 55.2606,
        "meta_ra_of_asc_node": 340.4377,
        "meta_arg_of_pericenter": 232.9477,
        "meta_mean_anomaly": 227.2059,
        "meta_ephemeris_type": 0,
        "meta_classification_type": "U",
        "meta_norad_cat_id": 48859,
        "meta_element_set_no": 999,
        "meta_rev_at_epoch": 3277,
        "meta_bstar": 0,
        "meta_mean_motion_dot": -5.5e-07,
        "meta_mean_motion_ddot": 0,
        "tle_line1": "1 48859U 21054A   25334.71692133 -.00000055  00000+0  00000+0 0  9994",
        "tle_line2": "2 48859  55.2606 340.4377 0024653 232.9477 227.2059  2.00553932 32777"
      },
      "geometry": {
        "type": "Point",
        "coordinates": [
          -166.70243338337085,
          -38.25573051504141
        ]
      }
    },
    {
      "type": "Feature",
      "properties": {
        "norad_id": 55268,
        "name": "GPS BIII-6  (PRN 28)",
        "group": "gps-ops",
        "lat": -55.058242112401445,
        "lon": 68.15042942831678,
        "alt_km": 20188.0563239827,
        "timestamp": "2025-12-08T08:59:01.024621+00:00",
        "meta_object_name": "GPS BIII-6  (PRN 28)",
        "meta_object_id": "2023-009A",
        "meta_epoch": "2025-12-07T12:05:19.826016",
        "meta_mean_motion": 2.00556044,
        "meta_eccentricity": 0.00036556,
        "meta_inclination": 55.1047,
        "meta_ra_of_asc_node": 156.0508,
        "meta_arg_of_pericenter": 357.2022,
        "meta_mean_anomaly": 5.4377,
        "meta_ephemeris_type": 0,
        "meta_classification_type": "U",
        "meta_norad_cat_id": 55268,
        "meta_element_set_no": 999,
        "meta_rev_at_epoch": 2140,
        "meta_bstar": 0,
        "meta_mean_motion_dot": 5.8e-07,
        "meta_mean_motion_ddot": 0,
        "tle_line1": "1 55268U 23009A   25341.50370169  .00000058  00000+0  00000+0 0  9997",
        "tle_line2": "2 55268  55.1047 156.0508 0003655 357.2022   5.4377  2.00556044 21404"
      },
      "geometry": {
        "type": "Point",
        "coordinates": [
          68.15042942831678,
          -55.058242112401445
        ]
      }
    },
    {
      "type": "Feature",
      "properties": {
        "norad_id": 62339,
        "name": "GPS BIII-7  (PRN 01)",
        "group": "gps-ops",
        "lat": -9.401963118769611,
        "lon": -24.768692605992058,
        "alt_km": 20151.925556706647,
        "timestamp": "2025-12-08T08:59:01.024633+00:00",
        "meta_object_name": "GPS BIII-7  (PRN 01)",
        "meta_object_id": "2024-242A",
        "meta_epoch": "2025-12-07T03:32:57.244128",
        "meta_mean_motion": 2.00567416,
        "meta_eccentricity": 0.00118981,
        "meta_inclination": 54.925,
        "meta_ra_of_asc_node": 341.9665,
        "meta_arg_of_pericenter": 343.6843,
        "meta_mean_anomaly": 199.2403,
        "meta_ephemeris_type": 0,
        "meta_classification_type": "U",
        "meta_norad_cat_id": 62339,
        "meta_element_set_no": 999,
        "meta_rev_at_epoch": 740,
        "meta_bstar": 0,
        "meta_mean_motion_dot": -8.5e-07,
        "meta_mean_motion_ddot": 0,
        "tle_line1": "1 62339U 24242A   25341.14788477 -.00000085  00000+0  00000+0 0  9990",
        "tle_line2": "2 62339  54.9250 341.9665 0011898 343.6843 199.2403  2.00567416  7402"
      },
      "geometry": {
        "type": "Point",
        "coordinates": [
          -24.768692605992058,
          -9.401963118769611
        ]
      }
    },
    {
      "type": "Feature",
      "properties": {
        "norad_id": 64202,
        "name": "GPS BIII-8  (PRN 21)",
        "group": "gps-ops",
        "lat": 1.579139970159046,
        "lon": -142.26625728559003,
        "alt_km": 20191.381015103638,
        "timestamp": "2025-12-08T08:59:01.024645+00:00",
        "meta_object_name": "GPS BIII-8  (PRN 21)",
        "meta_object_id": "2025-116A",
        "meta_epoch": "2025-12-07T02:40:40.917216",
        "meta_mean_motion": 2.00558359,
        "meta_eccentricity": 0.00051354,
        "meta_inclination": 55.1017,
        "meta_ra_of_asc_node": 38.8682,
        "meta_arg_of_pericenter": 307.3727,
        "meta_mean_anomaly": 39.0167,
        "meta_ephemeris_type": 0,
        "meta_classification_type": "U",
        "meta_norad_cat_id": 64202,
        "meta_element_set_no": 999,
        "meta_rev_at_epoch": 401,
        "meta_bstar": 0,
        "meta_mean_motion_dot": -7.4e-07,
        "meta_mean_motion_ddot": 0,
        "tle_line1": "1 64202U 25116A   25341.11158469 -.00000074  00000+0  00000+0 0  9999",
        "tle_line2": "2 64202  55.1017  38.8682 0005135 307.3727  39.0167  2.00558359  4011"
      },
      "geometry": {
        "type": "Point",
        "coordinates": [
          -142.26625728559003,
          1.579139970159046
        ]
      }
    }
  ]
}